OBJECT_NAME,OBJECT_ID,EPOCH,MEAN_MOTION,ECCENTRICITY,INCLINATION,RA_OF_ASC_NODE,ARG_OF_PERICENTER,MEAN_ANOMALY,EPHEMERIS_TYPE,CLASSIFICATION_TYPE,NORAD_CAT_ID,ELEMENT_SET_NO,REV_AT_EPOCH,BSTAR,MEAN_MOTION_DOT,MEAN_MOTION_DDOT
IRIDIUM 154,2018-061F,2026-07-17T13:56:30.464160,14.34217539,.00023111,86.3939,44.0932,89.8671,270.2790,0,U,43574,999,41776,.3777378E-5,.3E-6,0
IRIDIUM 163,2018-061G,2026-07-17T11:48:38.526048,14.34217181,.00020016,86.3934,44.0445,85.3177,274.8247,0,U,43575,999,41772,.1126E-8,.2E-6,0
IRIDIUM 156,2018-061H,2026-07-17T12:52:34.401792,14.34218145,.00021218,86.3936,44.0332,93.0957,267.0482,0,U,43576,999,41772,.17248129E-4,.68E-6,0
IRIDIUM 164,2018-061J,2026-07-17T12:25:10.498368,14.34218454,.00023599,86.3938,44.0823,89.1459,271.0007,0,U,43577,999,41776,.2459267E-4,.89E-6,0
IRIDIUM 159,2018-061K,2026-07-17T13:19:58.443456,14.34217736,.00021275,86.3935,44.0025,85.9032,274.2407,0,U,43578,999,41773,.10640471E-4,.5E-6,0
IRIDIUM 180,2019-002A,2026-07-17T08:17:50.948448,14.34217969,.00021696,86.3993,340.9903,91.8712,268.2733,0,U,43922,999,39331,.32739076E-4,.111E-5,0
IRIDIUM 176,2019-002B,2026-07-17T08:04:56.573760,14.72250602,.00023331,86.6114,340.9333,90.3542,269.7943,0,U,43923,999,40368,.55954817E-4,.377E-5,0
IRIDIUM 168,2019-002C,2026-07-17T08:08:43.043712,14.34216837,.00021859,86.3996,341.0709,90.4019,269.7427,0,U,43924,999,39329,-.1181993E-5,.16E-6,0
IRIDIUM 173,2019-002D,2026-07-17T09:30:54.963072,14.34217651,.00020164,86.3987,340.9351,92.6263,267.5163,0,U,43925,999,39328,-.31709615E-4,-.69E-6,0
IRIDIUM 169,2019-002E,2026-07-17T05:32:15.152352,14.38613573,.00019623,86.4223,12.6286,104.3780,255.7636,0,U,43926,999,39454,.13169384E-4,.6E-6,0
IRIDIUM 172,2019-002F,2026-07-17T11:02:14.994528,14.34217822,.00021679,86.3993,340.9164,91.3603,268.7841,0,U,43927,999,39330,.10811934E-4,.5E-6,0
IRIDIUM 175,2019-002G,2026-07-17T15:15:15.374304,14.43627949,.00054201,86.4511,277.7942,110.7505,249.4277,0,U,43928,999,40337,.42066129E-4,.163E-5,0
IRIDIUM 171,2019-002H,2026-07-17T08:54:22.960512,14.34217865,.00022515,86.4002,341.2627,94.8143,265.3310,0,U,43929,999,39328,.12065568E-4,.54E-6,0
IRIDIUM 170,2019-002J,2026-07-17T09:51:41.984640,14.72251266,.00022328,86.6113,340.9045,87.1114,273.0358,0,U,43930,999,40370,.55814095E-4,.377E-5,0
IRIDIUM 167,2019-002K,2026-07-17T08:45:14.959008,14.34217763,.00023353,86.3994,340.9788,98.4078,261.7382,0,U,43931,999,39328,.5671802E-5,.36E-6,0
IRIDIUM 181,2023-068S,2026-07-17T13:00:33.707520,14.43307787,.00023998,86.4475,44.0960,84.5681,275.5793,0,U,56726,999,16681,.20491703E-4,.89E-6,0
IRIDIUM 177,2023-068T,2026-07-17T14:39:51.772032,14.80026120,.00022009,86.1987,314.3476,96.7317,263.4155,0,U,56727,999,17086,.66304828E-4,.528E-5,0
IRIDIUM 174,2023-068U,2026-07-17T16:05:15.328320,14.72259865,.00019881,86.6122,340.9463,89.6924,270.4521,0,U,56728,999,17050,.53077996E-4,.359E-5,0
IRIDIUM 178,2023-068V,2026-07-17T11:09:18.187776,14.80028456,.00022707,86.6536,12.7051,90.8878,269.2604,0,U,56729,999,17084,.1891407E-4,.169E-5,0
IRIDIUM 179,2023-068W,2026-07-17T12:38:57.806016,14.80023268,.0002361,86.6767,21.7480,93.5148,266.6344,0,U,56730,999,17085,.6878367E-5,.78E-6,0
